ORBCOMM-X               
1 21576U 91050C   25327.75502220  .00000364  00000+0  12058-3 0  9999
2 21576  98.3251  30.9590 0004730  72.2142 287.9564 14.43412493805132
ORBCOMM FM01            
1 23545U 95017A   25327.59017352  .00007197  00000+0  70414-3 0  9994
2 23545  69.9635  36.0020 0002164 356.1923   3.9216 14.92706529636272
ORBCOMM FM02            
1 23546U 95017B   25327.68429153  .00008897  00000+0  83752-3 0  9998
2 23546  69.9649  54.5037 0002910  27.5165 332.6145 14.94135006635952
ORBCOMM FM08            
1 25112U 97084A   25328.04275310  .00001932  00000+0  57139-3 0  9993
2 25112  45.0144 320.1471 0007874 326.4733  33.5620 14.46488061464514
ORBCOMM FM10            
1 25113U 97084B   25327.97941390  .00001932  00000+0  57426-3 0  9992
2 25113  45.0156 323.1237 0006911 298.2982  61.7172 14.46245070639648
ORBCOMM FM11            
1 25114U 97084C   25328.01211502  .00001987  00000+0  59260-3 0  9992
2 25114  45.0142 323.8951 0007672 299.4771  60.5315 14.45985605464600
ORBCOMM FM12            
1 25115U 97084D   25328.04145093  .00001853  00000+0  55529-3 0  9993
2 25115  45.0147 323.4883 0006778 296.6565  63.3592 14.46009205464402
ORBCOMM FM09            
1 25116U 97084E   25328.01949536  .00001771  00000+0  53396-3 0  9994
2 25116  45.0152 324.6977 0008002 289.0581  70.9403 14.45857267464607
